#cP2019  4 14  0  0  0.00000000      96   u+U IGb08 FIT  WHU
## 2049      0.00000000   900.00000000 58587     0.000000000
+  111   G01G02G03G04G05G06G07G08G09G10G11G12G13G14G15G16G17
+        G18G19G20G21G22G23G24G25G26G27G28G29G30G31G32R01R02
+        R03R04R05R07R08R09R10R11R13R14R15R16R17R18R19R20R21
+        R22R23R24E01E02E03E04E05E07E08E09E11E12E14E18E19E21
+        E24E25E26E27E30E31E33E36C01C02C03C04C05C06C07C08C09
+        C10C11C12C13C14C16C18C19C20C21C22C23C24C25C27C28C29
+        C30C33C34C35C37J01J02J03J07  0  0  0  0  0  0  0  0
+          0  0  0  0  0  0  0  0  0  0  0  0  0  0  0  0  0
+          0  0  0  0  0  0  0  0  0  0  0  0  0  0  0  0  0
+          0  0  0  0  0  0  0  0  0  0  0  0  0  0  0  0  0
++         3  3  3  4  3  2  3  5  3  2  3  3  3  3  3  3  3
++         3  3  3  3  3  4  3  2  2  5  2  4  3  3  4  3  2
++         3  3  3  3  3  3  3  3  3  2  3  3  4  3  3  3  3
++         3  3  3  9  9  9  9  9  9  9  9  9  9  0  0  9  9
++         9  9  9  9  9  9  9  9 10 10 10 10 10 10  9  9 10
++         9 10  9 10  9  9 10 10 10 10 10 10  0  9 10 10 10
++        10 10 10 10 10 10  8  9  0  0  0  0  0  0  0  0  0
++         0  0  0  0  0  0  0  0  0  0  0  0  0  0  0  0  0
++         0  0  0  0  0  0  0  0  0  0  0  0  0  0  0  0  0
++         0  0  0  0  0  0  0  0  0  0  0  0  0  0  0  0  0
%c M  cc GPS ccc cccc cccc cccc cccc ccccc ccccc ccccc ccccc
%c cc cc ccc ccc cccc cccc cccc cccc ccccc ccccc ccccc ccccc
%f  1.2500000  1.025000000  0.00000000000  0.000000000000000
%f  0.0000000  0.000000000  0.00000000000  0.000000000000000
%i    0    0    0    0      0      0      0      0         0
%i    0    0    0    0      0      0      0      0         0
/* GNSS RESEARCH CENTER, WUHAN UNIVERSITY (WHU), P. R. CHINA
/* POSITION AND NAVIGATION DATA ANALYST (PANDA) SOFTWARE    
/* PCV:IGS08_2047 OL/AL:FES2004  NONE     NN ORB:CoM CLK:CoN
/*
*  2019  4 14  8 45  0.00000000
PG01 -13407.104001  17314.319480  14620.571183   -201.506202
PG02  14247.675920   6085.962948 -20987.204365   -188.652887
PG03 -22498.000712  12568.726210  -6279.316111    188.204973
PG04   5335.995249  20271.577315 -16299.707263    148.767982
PG05  24012.939148   -220.440154 -11688.181578      1.131769
PG06   8313.597090  18594.380269 -16979.356460    231.129263
PG07  -6724.086443  25302.513095  -2268.641439     -4.543826
PG08 -19636.515172   -288.743329  18016.345071   -139.859670
PG09   -365.009747  17879.024600 -19676.943363    429.055550
PG10  -5996.835933 -13998.636809  21826.170510     73.210991
PG11 -11959.862119  13251.503685  19202.282848   -626.761667
PG12  23504.117941 -10708.846632  -5981.312153    251.408428
PG13  20968.342665   9498.159804  13173.766126    -67.849441
PG14 -18330.425251 -19347.407957   1017.097142    -84.539587
PG15  19225.096307  -2915.835839  17995.289837   -318.458386
PG16 -24638.157099   -916.363397 -10622.545044    -32.555821
PG17  12936.427095  21275.796833   9775.389651     38.833282
PG18 -15190.507295   8254.864399  19640.995669     44.055946
PG19  17958.002890  19473.371802    752.698557   -330.839974
PG20   3959.556075 -17853.303104  19110.474367    523.959945
PG21   1307.038144 -26525.272935   2834.282091   -212.704348
PG22 -24836.267344   9130.655321   2048.284074   -683.378739
PG23 -12209.045871   9806.992815 -21156.199631   -190.260082
PG24  14427.078732 -14065.844762  16983.930644    -64.759225
PG25  14181.338453 -16236.740296 -15551.545735   -745.401130
PG26 -18057.743042  -7034.395047 -18258.028622    175.594494
PG27 -22486.140245 -10423.704364   9852.965464   -108.121416
PG28   3668.334759  14566.243858  22513.743558    767.436296
PG29   5844.423783 -14305.525388 -21632.129323    225.824313
PG30    751.198973  24979.067368   8732.924551    -86.256190
PG31  -9040.591643 -17267.382706 -17834.919049     45.170290
PG32 -16229.299071 -19974.333570   6853.714360   -133.328273
PR01   3928.105809  11451.861340 -22448.007759     42.309848
PR02  22065.379740   8010.579708  -9875.686972    363.632855
PR03  24320.035016   -148.358995   7663.829596     -6.323949
PR04  11928.779217  -8360.952862  20955.084113    302.403582
PR05  -6402.758285 -11343.226501  21948.977026     26.113998
PR07 -24223.090329    305.516317  -8008.747481    -18.246047
PR08 -12704.459474   8036.718571 -20554.086063     18.229368
PR09 -11125.680493  -3707.668323 -22637.245772     64.376819
PR10 -17555.577714  10413.350691 -15271.000594     47.608406
PR11 -14925.528824  20534.070413   2262.334599    -62.909963
PR13   9926.718147   4882.504692  22961.029615    -22.427949
PR14  17639.260100 -10616.455323  15073.517162     37.915222
PR15  15363.475715 -20314.374726  -1347.236127    101.320736
PR16   3689.386637 -18431.610874 -17209.338793     10.221964
PR17  11837.839115   1903.782166 -22507.329821    220.154974
PR18   3958.694923 -15047.847667 -20218.183893    -10.407970
PR19  -5428.528449 -23920.608259  -7009.979985    -25.412140
PR20 -12580.747337 -18660.722965  12069.441620   -374.904168
PR21 -11567.748344  -1236.769867  22701.098479    -42.319791
PR22  -2565.852197  16932.501802  18854.917264    -14.383925
PR23   8412.051916  24004.865322   1849.562386    221.640060
PR24  13175.900327  17152.340063 -13526.300917   -179.319436
PE01  13563.449121   9687.322245  24454.850035   -583.943711
PE02 -13614.332507  -9646.631730 -24457.202913     55.335441
PE03 -23589.430761 -15503.539425   8892.084945   -155.574012
PE04  27862.703906   3168.346424   9484.386059   -261.620915
PE05  -5462.758585 -18834.642492  22177.336751     73.860582
PE07 -15770.841005  11132.471478 -22426.368178   -168.939571
PE08 -27841.930210  -2934.208260  -9587.425672   6371.992608
PE09  15634.117262 -11149.402848  22539.891788   6469.424076
PE11   9447.300964 -20280.481852 -19393.425876   5706.645582
PE12  16713.319612   1112.842594 -24394.138811   6444.800078
PE14  11514.759479 -17458.197752 -25027.935851   -529.195398
PE18  -6379.371315  14047.128148  17550.587335   -628.249619
PE19  22367.553504  16196.599030 -10642.739927     -7.604022
PE21  -5510.244512  21454.100908  19625.473078   -529.522097
PE24  21049.267466 -20477.862403  -3647.390473   6132.844297
PE25   5557.823283 -21474.048912 -19602.431128   1834.538864
PE26   3063.329128  29271.280236   3146.298122   4683.545997
PE27 -21177.441896  20430.377989   3220.407866    489.739493
PE30 -24533.797179   7541.668720 -14767.687804   4951.938667
PE31  24390.434202  -7424.267745  15041.770039    857.062051
PE33  14116.707061  21164.305550 -15108.865104   -471.180629
PE36  -3363.809141 -29248.733328  -3116.952124    723.888946
PC01 -32315.024572  27061.870201    897.783165    457.114147
PC02   4328.809747  41943.870405   -557.283191    221.023641
PC03 -14826.187275  39439.239708    455.139246    126.503175
PC04 -39631.357624  14379.005983    722.176694   -148.487768
PC05  21881.566713  36006.930129   -882.532814   -237.011779
PC06 -11063.872980  21998.314121 -33880.243870    678.368557
PC07 -23908.945010  29658.320989  17681.071649   -299.696903
PC08 -11822.958703  37055.686114  16696.063885    144.849169
PC09   5328.392155  29633.196199 -29176.771083    684.425492
PC10 -10388.587879  30496.372100  27137.565129   -662.819181
PC11   8208.630689  25064.153496   9254.849287   -101.255457
PC12 -13276.410899   7834.119205  23324.800107    576.451290
PC13  -2801.285491  42138.921377   2357.783596   -652.418111
PC14  -8351.432822  15533.960856 -21569.470521    681.672023
PC16  -5088.915022  24721.138955 -33714.701357   -550.930512
PC18 -12006.535860  34077.237780  21414.214264    -36.653022
PC19 -14215.179931 -13302.114537  20019.678796     82.435894
PC20   6643.168347 -15747.697502  22089.655471    262.445164
PC21 -24020.067327   8836.687532 -11073.689492    451.325014
PC22 -27005.905641  -3135.195391   6236.026776    308.732989
PC23  16945.662065   1485.925181  22119.749565   -585.558898
PC24  -9629.556653  25650.026409   5343.517634   -646.659367
PC25   5822.469766  18982.789331  19608.450062   -183.607913
PC27  13891.824051  -7776.614758 -22929.569572     97.860889
PC28  19834.434620  11556.116109 -15866.684327     96.129408
PC29 -15087.004638 -23478.010013   -383.416309     49.260421
PC30   -891.555433 -22417.269052 -16608.634583    105.378562
PC33  14283.983702  13246.270444 -19974.585261    -88.142021
PC34    895.209469  22489.490944  16478.828194    283.822083
PC35 -20255.349884 -10916.701945  15819.973786    182.418822
PC37  18644.969927 -17050.264099  11856.793595    -51.432693
PJ01 -32574.211727  18673.077323 -14528.749449   -325.057343
PJ02 -26398.710629  32399.509361  -1534.518252      1.422692
PJ03 -26109.447716  22371.137996  29485.804787     -0.315147
PJ07 -25367.371702  33677.140180    -43.658085     -0.044770
EOF
